GPS BIIR-2  (PRN 13)    
1 24876U 97035A   17176.04549320  .00000046  00000-0  00000-0 0  9990
2 24876  55.5480 226.8014 0033927 105.6472 254.8160  2.00561587145985
GPS BIIR-3  (PRN 11)    
1 25933U 99055A   17177.26389395 -.00000059  00000-0  00000-0 0  9993
2 25933  51.6378  77.2410 0166789  94.8862 354.1622  2.00557885129835
GPS BIIR-4  (PRN 20)    
1 26360U 00025A   17177.27651744  .00000024  00000-0  00000-0 0  9999
2 26360  53.1207 154.5114 0041118  92.5218 108.6358  2.00560165125521
GPS BIIR-5  (PRN 28)    
1 26407U 00040A   17177.11376442 -.00000079  00000-0  00000-0 0  9991
2 26407  56.6317 344.8003 0199184 270.1086  94.8724  2.00566634124202
GPS BIIR-6  (PRN 14)    
1 26605U 00071A   17177.26423154  .00000030  00000-0  00000-0 0  9990
2 26605  55.1194 224.4813 0094647 248.4107 133.7533  2.00564549121808
GPS BIIR-7  (PRN 18)    
1 26690U 01004A   17177.21833458  .00000026  00000-0  00000-0 0  9993
2 26690  53.0425 157.4531 0183668 257.1868 201.6105  2.00569925120207
GPS BIIR-8  (PRN 16)    
1 27663U 03005A   17177.25148545 -.00000079  00000-0  00000-0 0  9996
2 27663  56.7004 344.5344 0092312  25.0062 197.1639  2.00558890105567
GPS BIIR-9  (PRN 21)    
1 27704U 03010A   17177.25034802 -.00000035  00000-0  00000-0 0  9990
2 27704  53.8631  97.8452 0242031 264.8601 277.1686  2.00565051104367
GPS BIIR-10 (PRN 22)    
1 28129U 03058A   17176.73443880  .00000025  00000-0  00000-0 0  9994
2 28129  52.9308 157.4621 0077272 262.0966  96.9956  2.00548821 99038
GPS BIIR-11 (PRN 19)    
1 28190U 04009A   17177.20821066 -.00000073  00000-0  00000-0 0  9992
2 28190  56.0088  45.5596 0100776  56.9085 287.0654  2.00564173 97238
GPS BIIR-12 (PRN 23)    
1 28361U 04023A   17177.01394753  .00000035  00000-0  00000-0 0  9992
2 28361  54.1061 219.5945 0119633 220.5869 253.4190  2.00556969 95290
GPS BIIR-13 (PRN 02)    
1 28474U 04045A   17177.27224963 -.00000035  00000-0  00000-0 0  9995
2 28474  54.2419  97.3188 0170480 247.4765  51.8504  2.00547241 92686
GPS BIIRM-1 (PRN 17)    
1 28874U 05038A   17177.14016265 -.00000073  00000-0  00000-0 0  9994
2 28874  56.1645  42.8250 0118507 254.4820  62.0573  2.00566896 86083
GPS BIIRM-2 (PRN 31)    
1 29486U 06042A   17177.30680294 -.00000034  00000-0  00000-0 0  9994
2 29486  55.3914 281.9246 0084670 343.9846  13.1745  2.00557587 78681
GPS BIIRM-3 (PRN 12)    
1 29601U 06052A   17176.25427922 -.00000078  00000-0  00000-0 0  9992
2 29601  56.6736 343.4925 0064625  50.1051 310.4585  2.00553345 77645
GPS BIIRM-4 (PRN 15)    
1 32260U 07047A   17176.58023251  .00000041  00000-0  00000-0 0  9994
2 32260  53.2325 215.9530 0091525  32.0743 328.5566  2.00576372 71095
GPS BIIRM-5 (PRN 29)    
1 32384U 07062A   17176.79941528 -.00000071  00000-0  00000-0 0  9991
2 32384  56.2289  43.4212 0005862  10.9139 287.0860  2.00571301 69795
GPS BIIRM-6 (PRN 07)    
1 32711U 08012A   17176.97961273 -.00000032  00000-0  00000-0 0  9997
2 32711  55.1201 281.3037 0108570 212.5485 146.8143  2.00556554 68027
GPS BIIRM-8 (PRN 05)    
1 35752U 09043A   17177.27258084  .00000029  00000-0  00000-0 0  9998
2 35752  54.2568 159.1493 0049193  28.8054 206.4210  2.00551601 57613
GPS BIIF-1  (PRN 25)    
1 36585U 10022A   17177.11755933 -.00000079  00000-0  00000-0 0  9996
2 36585  55.9799 340.2710 0063489  45.8156 185.7418  2.00575615 51842
GPS BIIF-2  (PRN 01)    
1 37753U 11036A   17177.06831896 -.00000030  00000-0  00000-0 0  9994
2 37753  55.4486 100.4213 0066834  30.9437 249.3420  2.00562286 43522
GPS BIIF-3  (PRN 24)    
1 38833U 12053A   17176.17136330 -.00000026  00000-0  00000-0 0  9991
2 38833  54.1489 278.2457 0055785  25.7037 334.6091  2.00561690 33783
GPS BIIF-4  (PRN 27)    
1 39166U 13023A   17177.02154181 -.00000075  00000-0  00000-0 0  9992
2 39166  55.8713  39.8419 0048002  18.9169 341.3205  2.00564810 30139
GPS BIIF-5  (PRN 30)    
1 39533U 14008A   17177.02626940 -.00000036  00000-0  00000-0 0  9998
2 39533  54.3021 283.5074 0029406 183.9517 176.0568  2.00564562 23956
GPS BIIF-6  (PRN 06)    
1 39741U 14026A   17176.30499557 -.00000032  00000-0  00000-0 0  9997
2 39741  55.4350  99.9718 0009397 292.6411  67.2521  2.00560882 22776
GPS BIIF-7  (PRN 09)    
1 40105U 14045A   17176.89512971  .00000038  00000-0  00000-0 0  9999
2 40105  54.6296 219.5105 0004756 123.6144 236.5098  2.00571049 20351
GPS BIIF-8  (PRN 03)    
1 40294U 14068A   17177.26807773  .00000031  00000-0  00000-0 0  9995
2 40294  55.0043 160.1373 0007661 349.1241  10.8322  2.00558859 19461
GPS BIIF-9  (PRN 26)    
1 40534U 15013A   17176.40671031 -.00000080  00000-0  00000-0 0  9999
2 40534  54.9348 339.3870 0018008 358.2872   1.6997  2.00557843 16492
GPS BIIF-10  (PRN 08)   
1 40730U 15033A   17176.56419199 -.00000073  00000-0  00000-0 0  9993
2 40730  55.4053  39.5272 0027004 319.4184  40.4399  2.00566411 14255
GPS BIIF-11  (PRN 10)   
1 41019U 15062A   17177.11714666  .00000031  00000-0  00000-0 0  9998
2 41019  55.0135 159.9316 0026825 205.7990 154.0404  2.00563495 12088
GPS BIIF-12  (PRN 32)   
1 41328U 16007A   17177.20537371  .00000034  00000-0  00000-0 0  9990
2 41328  54.8864 219.6894 0014642 221.3134 138.6529  2.00555986 10147
